CCSDS_OMM_VERS = 2.0
CREATION_DATE  = 
ORIGINATOR     = 

OBJECT_NAME    = STARLINK-36075
OBJECT_ID      = 2025-283AD
CENTER_NAME    = EARTH
REF_FRAME      = TEME
TIME_SYSTEM    = UTC
MEAN_ELEMENT_THEORY = SGP/SGP4

EPOCH          = 2025-12-27T22:00:03.999744
MEAN_MOTION    = 15.49595016
ECCENTRICITY   = .00014889
INCLINATION    = 53.1598
RA_OF_ASC_NODE = 358.4746
ARG_OF_PERICENTER = 77.7344
MEAN_ANOMALY   = 231.4022

EPHEMERIS_TYPE = 0
CLASSIFICATION_TYPE = U
NORAD_CAT_ID   = 66905
ELEMENT_SET_NO = 999
REV_AT_EPOCH   = 486
BSTAR          = -.90061458E-2
MEAN_MOTION_DOT = -.476783E-2
MEAN_MOTION_DDOT = 0

CCSDS_OMM_VERS = 2.0
CREATION_DATE  = 
ORIGINATOR     = 

OBJECT_NAME    = 1998-067XS
OBJECT_ID      = 1998-067XS
CENTER_NAME    = EARTH
REF_FRAME      = TEME
TIME_SYSTEM    = UTC
MEAN_ELEMENT_THEORY = SGP/SGP4

EPOCH          = 2025-12-27T11:37:45.623712
MEAN_MOTION    = 15.51372826
ECCENTRICITY   = .00026592
INCLINATION    = 51.6319
RA_OF_ASC_NODE = 69.2523
ARG_OF_PERICENTER = 278.8538
MEAN_ANOMALY   = 81.2150

EPHEMERIS_TYPE = 0
CLASSIFICATION_TYPE = U
NORAD_CAT_ID   = 66906
ELEMENT_SET_NO = 999
REV_AT_EPOCH   = 390
BSTAR          = .48079028E-3
MEAN_MOTION_DOT = .28453E-3
MEAN_MOTION_DDOT = 0

CCSDS_OMM_VERS = 2.0
CREATION_DATE  = 
ORIGINATOR     = 

OBJECT_NAME    = 1998-067XT
OBJECT_ID      = 1998-067XT
CENTER_NAME    = EARTH
REF_FRAME      = TEME
TIME_SYSTEM    = UTC
MEAN_ELEMENT_THEORY = SGP/SGP4

EPOCH          = 2025-12-27T22:03:17.121024
MEAN_MOTION    = 15.53389909
ECCENTRICITY   = .00038826
INCLINATION    = 51.6317
RA_OF_ASC_NODE = 66.9028
ARG_OF_PERICENTER = 320.2440
MEAN_ANOMALY   = 39.8265

EPHEMERIS_TYPE = 0
CLASSIFICATION_TYPE = U
NORAD_CAT_ID   = 66907
ELEMENT_SET_NO = 999
REV_AT_EPOCH   = 397
BSTAR          = .12132209E-2
MEAN_MOTION_DOT = .78499E-3
MEAN_MOTION_DDOT = 0

CCSDS_OMM_VERS = 2.0
CREATION_DATE  = 
ORIGINATOR     = 

OBJECT_NAME    = 1998-067XU
OBJECT_ID      = 1998-067XU
CENTER_NAME    = EARTH
REF_FRAME      = TEME
TIME_SYSTEM    = UTC
MEAN_ELEMENT_THEORY = SGP/SGP4

EPOCH          = 2025-12-27T22:01:35.359968
MEAN_MOTION    = 15.53412367
ECCENTRICITY   = .00040393
INCLINATION    = 51.6317
RA_OF_ASC_NODE = 66.8944
ARG_OF_PERICENTER = 316.9902
MEAN_ANOMALY   = 43.0773

EPHEMERIS_TYPE = 0
CLASSIFICATION_TYPE = U
NORAD_CAT_ID   = 66908
ELEMENT_SET_NO = 999
REV_AT_EPOCH   = 397
BSTAR          = .10494246E-2
MEAN_MOTION_DOT = .67801E-3
MEAN_MOTION_DDOT = 0

CCSDS_OMM_VERS = 2.0
CREATION_DATE  = 
ORIGINATOR     = 

OBJECT_NAME    = SILVERSAT
OBJECT_ID      = 1998-067XV
CENTER_NAME    = EARTH
REF_FRAME      = TEME
TIME_SYSTEM    = UTC
MEAN_ELEMENT_THEORY = SGP/SGP4

EPOCH          = 2025-12-27T11:10:11.042112
MEAN_MOTION    = 15.53674289
ECCENTRICITY   = .00039453
INCLINATION    = 51.6313
RA_OF_ASC_NODE = 69.1235
ARG_OF_PERICENTER = 319.4612
MEAN_ANOMALY   = 40.6084

EPHEMERIS_TYPE = 0
CLASSIFICATION_TYPE = U
NORAD_CAT_ID   = 66909
ELEMENT_SET_NO = 999
REV_AT_EPOCH   = 390
BSTAR          = .11635231E-2
MEAN_MOTION_DOT = .76025E-3
MEAN_MOTION_DDOT = 0

CCSDS_OMM_VERS = 2.0
CREATION_DATE  = 
ORIGINATOR     = 

OBJECT_NAME    = 1998-067XW
OBJECT_ID      = 1998-067XW
CENTER_NAME    = EARTH
REF_FRAME      = TEME
TIME_SYSTEM    = UTC
MEAN_ELEMENT_THEORY = SGP/SGP4

EPOCH          = 2025-12-27T21:56:23.792064
MEAN_MOTION    = 15.53633108
ECCENTRICITY   = .00036706
INCLINATION    = 51.6305
RA_OF_ASC_NODE = 66.8697
ARG_OF_PERICENTER = 293.1612
MEAN_ANOMALY   = 66.8991

EPHEMERIS_TYPE = 0
CLASSIFICATION_TYPE = U
NORAD_CAT_ID   = 66910
ELEMENT_SET_NO = 999
REV_AT_EPOCH   = 397
BSTAR          = .12148266E-2
MEAN_MOTION_DOT = .7931E-3
MEAN_MOTION_DDOT = 0

CCSDS_OMM_VERS = 2.0
CREATION_DATE  = 
ORIGINATOR     = 

OBJECT_NAME    = 1998-067XX
OBJECT_ID      = 1998-067XX
CENTER_NAME    = EARTH
REF_FRAME      = TEME
TIME_SYSTEM    = UTC
MEAN_ELEMENT_THEORY = SGP/SGP4

EPOCH          = 2025-12-27T09:28:42.533472
MEAN_MOTION    = 15.54137727
ECCENTRICITY   = .00034622
INCLINATION    = 51.6308
RA_OF_ASC_NODE = 69.4034
ARG_OF_PERICENTER = 299.6786
MEAN_ANOMALY   = 60.3859

EPHEMERIS_TYPE = 0
CLASSIFICATION_TYPE = U
NORAD_CAT_ID   = 66911
ELEMENT_SET_NO = 999
REV_AT_EPOCH   = 388
BSTAR          = .12426362E-2
MEAN_MOTION_DOT = .8268E-3
MEAN_MOTION_DDOT = 0

CCSDS_OMM_VERS = 2.0
CREATION_DATE  = 
ORIGINATOR     = 

OBJECT_NAME    = 1998-067XY
OBJECT_ID      = 1998-067XY
CENTER_NAME    = EARTH
REF_FRAME      = TEME
TIME_SYSTEM    = UTC
MEAN_ELEMENT_THEORY = SGP/SGP4

EPOCH          = 2025-12-27T05:12:20.649888
MEAN_MOTION    = 15.52574078
ECCENTRICITY   = .0003872
INCLINATION    = 51.6314
RA_OF_ASC_NODE = 70.4653
ARG_OF_PERICENTER = 305.7746
MEAN_ANOMALY   = 54.2884

EPHEMERIS_TYPE = 0
CLASSIFICATION_TYPE = U
NORAD_CAT_ID   = 66912
ELEMENT_SET_NO = 999
REV_AT_EPOCH   = 385
BSTAR          = .8769E-3
MEAN_MOTION_DOT = .54785E-3
MEAN_MOTION_DDOT = 0

CCSDS_OMM_VERS = 2.0
CREATION_DATE  = 
ORIGINATOR     = 

OBJECT_NAME    = 2025-284A
OBJECT_ID      = 2025-284A
CENTER_NAME    = EARTH
REF_FRAME      = TEME
TIME_SYSTEM    = UTC
MEAN_ELEMENT_THEORY = SGP/SGP4

EPOCH          = 2025-12-23T02:34:46.438752
MEAN_MOTION    = 15.08893564
ECCENTRICITY   = .0013475
INCLINATION    = 80.4035
RA_OF_ASC_NODE = 116.7336
ARG_OF_PERICENTER = 259.6514
MEAN_ANOMALY   = 100.3189

EPHEMERIS_TYPE = 0
CLASSIFICATION_TYPE = U
NORAD_CAT_ID   = 66913
ELEMENT_SET_NO = 999
REV_AT_EPOCH   = 269
BSTAR          = .55263602E-3
MEAN_MOTION_DOT = .8748E-4
MEAN_MOTION_DDOT = 0

CCSDS_OMM_VERS = 2.0
CREATION_DATE  = 
ORIGINATOR     = 

OBJECT_NAME    = 2025-284B
OBJECT_ID      = 2025-284B
CENTER_NAME    = EARTH
REF_FRAME      = TEME
TIME_SYSTEM    = UTC
MEAN_ELEMENT_THEORY = SGP/SGP4

EPOCH          = 2025-12-16T06:51:11.417184
MEAN_MOTION    = 15.18985981
ECCENTRICITY   = .00081793
INCLINATION    = 80.4045
RA_OF_ASC_NODE = 125.2713
ARG_OF_PERICENTER = 234.9626
MEAN_ANOMALY   = 125.0834

EPHEMERIS_TYPE = 0
CLASSIFICATION_TYPE = U
NORAD_CAT_ID   = 66914
ELEMENT_SET_NO = 999
REV_AT_EPOCH   = 166
BSTAR          = .38444995E-3
MEAN_MOTION_DOT = .8068E-4
MEAN_MOTION_DDOT = 0

CCSDS_OMM_VERS = 2.0
CREATION_DATE  = 
ORIGINATOR     = 

OBJECT_NAME    = HULIANWANG DIGUI-105
OBJECT_ID      = 2025-285A
CENTER_NAME    = EARTH
REF_FRAME      = TEME
TIME_SYSTEM    = UTC
MEAN_ELEMENT_THEORY = SGP/SGP4

EPOCH          = 2025-12-27T12:17:09.797280
MEAN_MOTION    = 14.01758696
ECCENTRICITY   = .00062751
INCLINATION    = 50.0023
RA_OF_ASC_NODE = 57.1247
ARG_OF_PERICENTER = 333.8573
MEAN_ANOMALY   = 26.2013

EPHEMERIS_TYPE = 0
CLASSIFICATION_TYPE = U
NORAD_CAT_ID   = 66915
ELEMENT_SET_NO = 999
REV_AT_EPOCH   = 298
BSTAR          = .13672165E-3
MEAN_MOTION_DOT = .58E-6
MEAN_MOTION_DDOT = 0

CCSDS_OMM_VERS = 2.0
CREATION_DATE  = 
ORIGINATOR     = 

OBJECT_NAME    = HULIANWANG DIGUI-106
OBJECT_ID      = 2025-285B
CENTER_NAME    = EARTH
REF_FRAME      = TEME
TIME_SYSTEM    = UTC
MEAN_ELEMENT_THEORY = SGP/SGP4

EPOCH          = 2025-12-27T10:30:20.132064
MEAN_MOTION    = 14.01851189
ECCENTRICITY   = .00049482
INCLINATION    = 50.0052
RA_OF_ASC_NODE = 57.4085
ARG_OF_PERICENTER = 327.7035
MEAN_ANOMALY   = 32.3565

EPHEMERIS_TYPE = 0
CLASSIFICATION_TYPE = U
NORAD_CAT_ID   = 66916
ELEMENT_SET_NO = 999
REV_AT_EPOCH   = 297
BSTAR          = .13438696E-3
MEAN_MOTION_DOT = .55E-6
MEAN_MOTION_DDOT = 0

